STARLINK-5777           
1 56027U 23042AT  23101.42783317  .00093803  00000+0  71041-3 0  9991
2 56027  43.0019  86.8299 0001403 273.6555  86.4152 15.71366575  3153
STARLINK-5779           
1 56028U 23042AU  23102.12638002  .00020961  00000+0  16279-3 0  9997
2 56028  43.0025  82.6076 0001654 257.8849 102.1834 15.71369378  3265
STARLINK-5774           
1 56029U 23042AV  23102.38094635  .00004492  00000+0  37684-4 0  9999
2 56029  43.0023  81.0761 0001207 265.2319  94.8411 15.71351172  3303
STARLINK-5781           
1 56030U 23042AW  23102.12627660  .00027084  00000+0  20922-3 0  9991
2 56030  43.0029  82.6075 0001328 268.5908  91.4807 15.71365920  3263
STARLINK-5785           
1 56031U 23042AX  23102.19004875  .00051706  00000+0  39489-3 0  9992
2 56031  43.0028  82.2254 0001396 252.5429 107.5287 15.71380115  3279
STARLINK-5786           
1 56032U 23042AY  23102.12596168  .00074137  00000+0  56422-3 0  9996
2 56032  43.0030  82.6062 0001251 258.5845 101.4882 15.71337171  3269
STARLINK-5784           
1 56033U 23042AZ  23102.12606431  .00014561  00000+0  11425-3 0  9991
2 56033  43.0028  82.6058 0001569 264.7140  95.3549 15.71363907  3268
STARLINK-5782           
1 56034U 23042BA  23102.38010635  .00093865  00000+0  71048-3 0  9996
2 56034  43.0028  81.0714 0001286 256.5278 103.5446 15.71379664  3308
STARLINK-5792           
1 56035U 23042BB  23102.38042098  .00003148  00000+0  27445-4 0  9993
2 56035  43.0028  81.0719 0001186 281.8057  78.2677 15.71351089  3304
STARLINK-5790           
1 56036U 23042BC  23102.37989472  .00044842  00000+0  34359-3 0  9996
2 56036  43.0029  81.0699 0001330 278.1611  81.9106 15.71353764  3309
STARLINK-5758           
1 56037U 23042BD  23102.12554085  .00026427  00000+0  20429-3 0  9990
2 56037  43.0030  82.6016 0001422 260.1154  99.9553 15.71360427  3261
STARLINK-5793           
1 56038U 23042BE  23102.37999039 -.00002360  00000+0 -14552-4 0  9993
2 56038  43.0027  81.0703 0001415 251.3719 108.6996 15.71365162  3300
STARLINK-5795           
1 56039U 23042BF  23102.37968177  .00021209  00000+0  16494-3 0  9990
2 56039  43.0027  81.0672 0001239 268.6081  91.4645 15.71330432  3305
STARLINK-5798           
1 56040U 23042BG  23102.37957715  .00043698  00000+0  33492-3 0  9991
2 56040  43.0027  81.0669 0001718 233.7536 126.3174 15.71355870  3301
STARLINK-5800           
1 56041U 23042BH  23102.12514772  .00113272  00000+0  84601-3 0  9991
2 56041  43.0029  82.5990 0001491 241.1207 118.9512 15.71621069  3267
FALCON 9 DEB            
1 56042U 23042BJ  23102.36153549  .00458539  93397-4  10276-2 0  9999
2 56042  43.0113  79.1306 0025864 124.6157 235.7164 15.96290377  2984
FALCON 9 DEB            
1 56043U 23042BK  23102.35419579  .00504588  11390-3  10656-2 0  9997
2 56043  43.0067  79.0640 0023792 128.4282 231.8736 15.97444031  2983
FALCON 9 DEB            
1 56044U 23042BL  23102.40175218  .00515462  12110-3  10046-2 0  9990
2 56044  43.0038  78.5376 0021689 119.4721 240.8324 15.98948143  2991
FALCON 9 DEB            
1 56045U 23042BM  23102.34084912  .00419612  80651-4  86890-3 0  9991
2 56045  43.0008  78.9382 0020989 121.9337 238.3585 15.97924946  2987
ONEWEB-0537             
1 56046U 23043A   23101.89442442  .00024775  00000+0  62238-3 0  9995
2 56046  87.4218 136.6998 0013556 201.1333 158.9364 15.39762348  2587
ONEWEB-0538             
1 56047U 23043B   23101.82857191  .00024747  00000+0  62001-3 0  9997
2 56047  87.4231 136.7240 0013316 200.3450 159.7276 15.39847547  2574
ONEWEB-0546             
1 56048U 23043C   23101.82656331  .00024715  00000+0  61549-3 0  9992
2 56048  87.4203 136.7192 0012811 197.5035 162.5780 15.40038290  2576
ONEWEB-0547             
1 56049U 23043D   23101.81667931  .00025209  00000+0  60956-3 0  9990
2 56049  87.4208 136.7149 0009396 189.1815 170.9270 15.40972909  2572
ONEWEB-0548             
1 56050U 23043E   23101.83227514  .00007421  00000+0  18784-3 0  9991
2 56050  87.4233 136.7271 0013511 206.0076 154.0502 15.39466250  2576
ONEWEB-0549             
1 56051U 23043F   23102.20892080  .00023367  00000+0  56890-3 0  9997
2 56051  87.4214 136.5815 0010610 188.1712 171.9373 15.40755350  3537
ONEWEB-0550             
1 56052U 23043G   23101.82262847  .00025218  00000+0  62045-3 0  9993
2 56052  87.4210 136.7173 0011862 190.7017 169.3988 15.40418183  2576
ONEWEB-0551             
1 56053U 23043H   23102.17725936  .00018505  00000+0  55435-3 0  9992
2 56053  87.4354 136.6309 0010973 218.1997 141.8478 15.34337077  3520
ONEWEB-0552             
1 56054U 23043J   23101.82469768  .00025002  00000+0  61899-3 0  9993
2 56054  87.4223 136.7211 0012434 194.7998 165.2895 15.40221845  2572
ONEWEB-0553             
1 56055U 23043K   23101.82731721  .00024636  00000+0  61492-3 0  9996
2 56055  87.4239 136.7246 0012961 198.4265 161.6523 15.39967316  2577
ONEWEB-0554             
1 56056U 23043L   23101.82557026  .00024940  00000+0  61919-3 0  9993
2 56056  87.4234 136.7230 0012610 196.0622 164.0236 15.40134470  2575
ONEWEB-0555             
1 56057U 23043M   23101.83265631  .00042883  00000+0  10847-2 0  9992
2 56057  87.4217 136.7229 0013668 205.0759 154.9833 15.39504965  2570
ONEWEB-0557             
1 56058U 23043N   23101.82525747  .00024969  00000+0  61936-3 0  9990
2 56058  87.4211 136.7197 0012506 195.4844 164.6031 15.40162863  2573
ONEWEB-0558             
1 56059U 23043P   23101.81579313  .00025495  00000+0  61476-3 0  9992
2 56059  87.4221 136.7182 0009045 189.9679 170.1399 15.41059762  2570
ONEWEB-0559             
1 56060U 23043Q   23101.81866589  .00025535  00000+0  62089-3 0  9994
2 56060  87.4211 136.7169 0010375 189.2307 170.8760 15.40793237  2575
ONEWEB-0566             
1 56061U 23043R   23101.82230860  .00041504  00000+0  10189-2 0  9990
2 56061  87.4214 136.7213 0011660 190.4462 169.6553 15.40447092  2574
ONEWEB-0568             
1 56062U 23043S   23101.84006754  .00023963  00000+0  62236-3 0  9996
2 56062  87.4218 136.7250 0012001 217.7813 142.2600 15.38766212  2578
ONEWEB-0574             
1 56063U 23043T   23101.81481446  .00025770  00000+0  61945-3 0  9993
2 56063  87.4185 136.7074 0008896 192.2274 167.8768 15.41155597  2571
ONEWEB-0575             
1 56064U 23043U   23101.83869395  .00023690  00000+0  61266-3 0  9994
2 56064  87.4231 136.7302 0012368 216.4745 143.5668 15.38891998  2577
ONEWEB-0576             
1 56065U 23043V   23102.54991295  .00022210  00000+0  56663-3 0  9991
2 56065  87.4256 136.4816 0013394 207.7294 152.3248 15.39296939  3583
ONEWEB-0577             
1 56066U 23043W   23102.55135321  .00021966  00000+0  56281-3 0  9996
2 56066  87.4245 136.4797 0013346 210.0657 149.9833 15.39166700  3581
ONEWEB-0578             
1 56067U 23043X   23101.81955805  .00025526  00000+0  62236-3 0  9995
2 56067  87.4210 136.7153 0010705 189.7353 170.3696 15.40706764  2579
ONEWEB-0579             
1 56068U 23043Y   23102.52691558  .00024900  00000+0  59402-3 0  9993
2 56068  87.4218 136.4629 0008448 192.4960 167.6088 15.41389811  3586
ONEWEB-0581             
1 56069U 23043Z   23102.58334491 -.01029079  00000+0 -28965-1 0  9993
2 56069  87.4207 136.4637 0013238 210.2321 324.9810 15.39316456  3591
ONEWEB-0609             
1 56070U 23043AA  23102.25001157 -.00042536  00000+0 -13361-2 0  9996
2 56070  87.4439 136.5822 0008865 190.8633 352.6968 15.33212627  3542
ONEWEB-0613             
1 56071U 23043AB  23102.58334491 -.01183863  00000+0 -40789-1 0  9996
2 56071  87.4396 136.4811 0013034 209.8536 242.0929 15.32988248  3591
ONEWEB-0630             
1 56072U 23043AC  23102.58334491 -.01332209  00000+0 -46044-1 0  9997
2 56072  87.4392 136.4769 0013032 207.1877 259.7286 15.32758706  3592
ONEWEB-0632             
1 56073U 23043AD  23102.58334491 -.01282847  00000+0 -44209-1 0  9991
2 56073  87.4438 136.4584 0008239 195.0491  37.3255 15.32822781  3590
ONEWEB-0633             
1 56074U 23043AE  23102.58334491 -.00743226  00000+0 -25141-1 0  9998
2 56074  87.4410 136.4562 0009013 188.7660  34.6864 15.33244135  3593
ONEWEB-0634             
1 56075U 23043AF  23102.25001157 -.01202113  00000+0 -39604-1 0  9998
2 56075  87.4384 136.5726 0008966 188.3044 353.8061 15.34514777  3548
ONEWEB-0635             
1 56076U 23043AG  23102.58334491 -.01332534  00000+0 -45545-1 0  9997
2 56076  87.4433 136.4870 0013370 205.3490 268.4708 15.33105627  3596
ONEWEB-0636             
1 56077U 23043AH  23102.58334491 -.01349057  00000+0 -47112-1 0  9998
2 56077  87.4443 136.4732 0010964 186.1470 352.3038 15.32503355  3593
ONEWEB-0637             
1 56078U 23043AJ  23102.25001157 -.00038855  00000+0 -12212-2 0  9997
2 56078  87.4367 136.6037 0011250 220.4654 159.3736 15.33156178  3536
ONEWEB-0647             
1 56079U 23043AK  23102.58334491 -.01347153  00000+0 -45963-1 0  9997
2 56079  87.4415 136.4710 0012038 187.7978 343.4821 15.33217937  2683
ONEWEB-0651             
1 56080U 23043AL  23101.50001157  .00083706  00000+0  24925-2 0  9994
2 56080  87.4355 136.8475 0012918 202.8296  91.6276 15.34295528  2510
ONEWEB-0718             
1 56081U 23043AM  23101.50001157  .00081340  00000+0  25304-2 0  9999
2 56081  87.4409 136.8429 0011132 191.4897 129.0899 15.32934696  1304
GSLV R/B                
1 56082U 23043AN  23101.84710214  .00021200  00000+0  56034-3 0  9992
2 56082  87.4164 136.7249 0022543 327.4060  32.5801 15.38037715  2576
COSMOS 2568             
1 56091U 23045A   23102.54061444  .00045984  00000+0  25870-3 0  9995
2 56091  96.4603 192.2932 0011913 235.8686 249.5689 15.79006799  2156
SL-4 R/B                
1 56092U 23045B   23102.25155905  .00114361  00000+0  57154-3 0  9996
2 56092  96.4635 192.0711 0014053 236.7089 123.2835 15.81368976  2129
STARLINK-6102           
1 56093U 23046A   23102.25001157 -.00912590  00000+0 -10669-1 0  9997
2 56093  42.9995 183.2667 0001334 264.8187  21.1896 15.63185504  2651
